<?xml version="1.0" encoding="UTF-8"?>
<ndm xmlns:xsi="http://www.w3.org/2001/XMLSchema-instance" xsi:noNamespaceSchemaLocation="https://sanaregistry.org/r/ndmxml_unqualified/ndmxml-2.0.0-master-2.0.xsd">
<omm id="CCSDS_OMM_VERS" version="2.0">
<header><CREATION_DATE/><ORIGINATOR/></header><body><segment><metadata><OBJECT_NAME>ORBCOMM FM05 [-]</OBJECT_NAME><OBJECT_ID>1997-084F</OBJECT_ID><CENTER_NAME>EARTH</CENTER_NAME><REF_FRAME>TEME</REF_FRAME><TIME_SYSTEM>UTC</TIME_SYSTEM><MEAN_ELEMENT_THEORY>SGP4</MEAN_ELEMENT_THEORY></metadata><data><meanElements><EPOCH>2024-01-22T20:42:35.576064</EPOCH><MEAN_MOTION>14.42054270</MEAN_MOTION><ECCENTRICITY>.0001434</ECCENTRICITY><INCLINATION>45.0161</INCLINATION><RA_OF_ASC_NODE>295.2971</RA_OF_ASC_NODE><ARG_OF_PERICENTER>181.8153</ARG_OF_PERICENTER><MEAN_ANOMALY>178.2692</MEAN_ANOMALY></meanElements><tleParameters><EPHEMERIS_TYPE>0</EPHEMERIS_TYPE><CLASSIFICATION_TYPE>U</CLASSIFICATION_TYPE><NORAD_CAT_ID>25117</NORAD_CAT_ID><ELEMENT_SET_NO>999</ELEMENT_SET_NO><REV_AT_EPOCH>36764</REV_AT_EPOCH><BSTAR>.77358E-3</BSTAR><MEAN_MOTION_DOT>.2422E-4</MEAN_MOTION_DOT><MEAN_MOTION_DDOT>0</MEAN_MOTION_DDOT></tleParameters></data></segment></body></omm>
<omm id="CCSDS_OMM_VERS" version="2.0">
<header><CREATION_DATE/><ORIGINATOR/></header><body><segment><metadata><OBJECT_NAME>ORBCOMM FM06 [+]</OBJECT_NAME><OBJECT_ID>1997-084G</OBJECT_ID><CENTER_NAME>EARTH</CENTER_NAME><REF_FRAME>TEME</REF_FRAME><TIME_SYSTEM>UTC</TIME_SYSTEM><MEAN_ELEMENT_THEORY>SGP4</MEAN_ELEMENT_THEORY></metadata><data><meanElements><EPOCH>2024-01-22T21:58:35.890752</EPOCH><MEAN_MOTION>14.42038739</MEAN_MOTION><ECCENTRICITY>.0000831</ECCENTRICITY><INCLINATION>45.0152</INCLINATION><RA_OF_ASC_NODE>295.2262</RA_OF_ASC_NODE><ARG_OF_PERICENTER>217.8345</ARG_OF_PERICENTER><MEAN_ANOMALY>267.0477</MEAN_ANOMALY></meanElements><tleParameters><EPHEMERIS_TYPE>0</EPHEMERIS_TYPE><CLASSIFICATION_TYPE>U</CLASSIFICATION_TYPE><NORAD_CAT_ID>25118</NORAD_CAT_ID><ELEMENT_SET_NO>999</ELEMENT_SET_NO><REV_AT_EPOCH>36762</REV_AT_EPOCH><BSTAR>.81838E-3</BSTAR><MEAN_MOTION_DOT>.2569E-4</MEAN_MOTION_DOT><MEAN_MOTION_DDOT>0</MEAN_MOTION_DDOT></tleParameters></data></segment></body></omm>
<omm id="CCSDS_OMM_VERS" version="2.0">
<header><CREATION_DATE/><ORIGINATOR/></header><body><segment><metadata><OBJECT_NAME>ORBCOMM FM07 [-]</OBJECT_NAME><OBJECT_ID>1997-084H</OBJECT_ID><CENTER_NAME>EARTH</CENTER_NAME><REF_FRAME>TEME</REF_FRAME><TIME_SYSTEM>UTC</TIME_SYSTEM><MEAN_ELEMENT_THEORY>SGP4</MEAN_ELEMENT_THEORY></metadata><data><meanElements><EPOCH>2024-01-22T21:03:30.395232</EPOCH><MEAN_MOTION>14.41970576</MEAN_MOTION><ECCENTRICITY>.000204</ECCENTRICITY><INCLINATION>45.0147</INCLINATION><RA_OF_ASC_NODE>295.8886</RA_OF_ASC_NODE><ARG_OF_PERICENTER>159.0385</ARG_OF_PERICENTER><MEAN_ANOMALY>201.0549</MEAN_ANOMALY></meanElements><tleParameters><EPHEMERIS_TYPE>0</EPHEMERIS_TYPE><CLASSIFICATION_TYPE>U</CLASSIFICATION_TYPE><NORAD_CAT_ID>25119</NORAD_CAT_ID><ELEMENT_SET_NO>999</ELEMENT_SET_NO><REV_AT_EPOCH>36761</REV_AT_EPOCH><BSTAR>.76188E-3</BSTAR><MEAN_MOTION_DOT>.2378E-4</MEAN_MOTION_DOT><MEAN_MOTION_DDOT>0</MEAN_MOTION_DDOT></tleParameters></data></segment></body></omm>
<omm id="CCSDS_OMM_VERS" version="2.0">
<header><CREATION_DATE/><ORIGINATOR/></header><body><segment><metadata><OBJECT_NAME>ORBCOMM FM03 [-]</OBJECT_NAME><OBJECT_ID>1998-007B</OBJECT_ID><CENTER_NAME>EARTH</CENTER_NAME><REF_FRAME>TEME</REF_FRAME><TIME_SYSTEM>UTC</TIME_SYSTEM><MEAN_ELEMENT_THEORY>SGP4</MEAN_ELEMENT_THEORY></metadata><data><meanElements><EPOCH>2024-01-22T21:20:31.276896</EPOCH><MEAN_MOTION>14.31742413</MEAN_MOTION><ECCENTRICITY>.0045131</ECCENTRICITY><INCLINATION>107.9728</INCLINATION><RA_OF_ASC_NODE>167.4058</RA_OF_ASC_NODE><ARG_OF_PERICENTER>60.5026</ARG_OF_PERICENTER><MEAN_ANOMALY>300.0603</MEAN_ANOMALY></meanElements><tleParameters><EPHEMERIS_TYPE>0</EPHEMERIS_TYPE><CLASSIFICATION_TYPE>U</CLASSIFICATION_TYPE><NORAD_CAT_ID>25158</NORAD_CAT_ID><ELEMENT_SET_NO>999</ELEMENT_SET_NO><REV_AT_EPOCH>35079</REV_AT_EPOCH><BSTAR>.68279E-3</BSTAR><MEAN_MOTION_DOT>.1715E-4</MEAN_MOTION_DOT><MEAN_MOTION_DDOT>0</MEAN_MOTION_DDOT></tleParameters></data></segment></body></omm>
<omm id="CCSDS_OMM_VERS" version="2.0">
<header><CREATION_DATE/><ORIGINATOR/></header><body><segment><metadata><OBJECT_NAME>ORBCOMM FM04 [+]</OBJECT_NAME><OBJECT_ID>1998-007C</OBJECT_ID><CENTER_NAME>EARTH</CENTER_NAME><REF_FRAME>TEME</REF_FRAME><TIME_SYSTEM>UTC</TIME_SYSTEM><MEAN_ELEMENT_THEORY>SGP4</MEAN_ELEMENT_THEORY></metadata><data><meanElements><EPOCH>2024-01-22T21:32:07.120032</EPOCH><MEAN_MOTION>14.31999044</MEAN_MOTION><ECCENTRICITY>.0040686</ECCENTRICITY><INCLINATION>107.9714</INCLINATION><RA_OF_ASC_NODE>170.2872</RA_OF_ASC_NODE><ARG_OF_PERICENTER>58.0836</ARG_OF_PERICENTER><MEAN_ANOMALY>302.4250</MEAN_ANOMALY></meanElements><tleParameters><EPHEMERIS_TYPE>0</EPHEMERIS_TYPE><CLASSIFICATION_TYPE>U</CLASSIFICATION_TYPE><NORAD_CAT_ID>25159</NORAD_CAT_ID><ELEMENT_SET_NO>999</ELEMENT_SET_NO><REV_AT_EPOCH>35096</REV_AT_EPOCH><BSTAR>.7136E-3</BSTAR><MEAN_MOTION_DOT>.1804E-4</MEAN_MOTION_DOT><MEAN_MOTION_DDOT>0</MEAN_MOTION_DDOT></tleParameters></data></segment></body></omm>
<omm id="CCSDS_OMM_VERS" version="2.0">
<header><CREATION_DATE/><ORIGINATOR/></header><body><segment><metadata><OBJECT_NAME>ORBCOMM FM17 [-]</OBJECT_NAME><OBJECT_ID>1998-046A</OBJECT_ID><CENTER_NAME>EARTH</CENTER_NAME><REF_FRAME>TEME</REF_FRAME><TIME_SYSTEM>UTC</TIME_SYSTEM><MEAN_ELEMENT_THEORY>SGP4</MEAN_ELEMENT_THEORY></metadata><data><meanElements><EPOCH>2024-01-22T10:47:24.842976</EPOCH><MEAN_MOTION>14.32729567</MEAN_MOTION><ECCENTRICITY>.0003225</ECCENTRICITY><INCLINATION>44.9932</INCLINATION><RA_OF_ASC_NODE>148.0887</RA_OF_ASC_NODE><ARG_OF_PERICENTER>186.1280</ARG_OF_PERICENTER><MEAN_ANOMALY>173.9527</MEAN_ANOMALY></meanElements><tleParameters><EPHEMERIS_TYPE>0</EPHEMERIS_TYPE><CLASSIFICATION_TYPE>U</CLASSIFICATION_TYPE><NORAD_CAT_ID>25413</NORAD_CAT_ID><ELEMENT_SET_NO>999</ELEMENT_SET_NO><REV_AT_EPOCH>32972</REV_AT_EPOCH><BSTAR>.83943E-3</BSTAR><MEAN_MOTION_DOT>.2166E-4</MEAN_MOTION_DOT><MEAN_MOTION_DDOT>0</MEAN_MOTION_DDOT></tleParameters></data></segment></body></omm>
<omm id="CCSDS_OMM_VERS" version="2.0">
<header><CREATION_DATE/><ORIGINATOR/></header><body><segment><metadata><OBJECT_NAME>ORBCOMM FM19 [+]</OBJECT_NAME><OBJECT_ID>1998-046C</OBJECT_ID><CENTER_NAME>EARTH</CENTER_NAME><REF_FRAME>TEME</REF_FRAME><TIME_SYSTEM>UTC</TIME_SYSTEM><MEAN_ELEMENT_THEORY>SGP4</MEAN_ELEMENT_THEORY></metadata><data><meanElements><EPOCH>2024-01-22T13:29:40.825248</EPOCH><MEAN_MOTION>14.35203904</MEAN_MOTION><ECCENTRICITY>.0004856</ECCENTRICITY><INCLINATION>44.9950</INCLINATION><RA_OF_ASC_NODE>78.1742</RA_OF_ASC_NODE><ARG_OF_PERICENTER>232.6492</ARG_OF_PERICENTER><MEAN_ANOMALY>280.4467</MEAN_ANOMALY></meanElements><tleParameters><EPHEMERIS_TYPE>0</EPHEMERIS_TYPE><CLASSIFICATION_TYPE>U</CLASSIFICATION_TYPE><NORAD_CAT_ID>25415</NORAD_CAT_ID><ELEMENT_SET_NO>999</ELEMENT_SET_NO><REV_AT_EPOCH>33062</REV_AT_EPOCH><BSTAR>.77769E-3</BSTAR><MEAN_MOTION_DOT>.2104E-4</MEAN_MOTION_DOT><MEAN_MOTION_DDOT>0</MEAN_MOTION_DDOT></tleParameters></data></segment></body></omm>

</ndm>
