ORBCOMM FM05 [-]        
1 25117U 97084F   24022.86291176  .00002422  00000+0  77358-3 0  9996
2 25117  45.0161 295.2971 0001434 181.8153 178.2692 14.42054270366705
ORBCOMM FM06 [+]        
1 25118U 97084G   24022.91569318  .00002569  00000+0  81838-3 0  9999
2 25118  45.0152 295.2262 0000831 217.8345 267.0477 14.42038739367624
ORBCOMM FM07 [-]        
1 25119U 97084H   24022.87743513  .00002378  00000+0  76188-3 0  9996
2 25119  45.0147 295.8886 0002040 159.0385 201.0549 14.41970576367612
ORBCOMM FM03 [-]        
1 25158U 98007B   24022.88925089  .00001715  00000+0  68279-3 0  9992
2 25158 107.9728 167.4058 0045131  60.5026 300.0603 14.31742413350797
ORBCOMM FM04 [+]        
1 25159U 98007C   24022.89730463  .00001804  00000+0  71360-3 0  9998
2 25159 107.9714 170.2872 0040686  58.0836 302.4250 14.31999044350967
ORBCOMM FM17 [-]        
1 25413U 98046A   24022.44959309  .00002166  00000+0  83943-3 0  9999
2 25413  44.9932 148.0887 0003225 186.1280 173.9527 14.32729567329725
ORBCOMM FM19 [+]        
1 25415U 98046C   24022.56227807  .00002104  00000+0  77769-3 0  9996
2 25415  44.9950  78.1742 0004856 232.6492 280.4467 14.35203904330626
